NORAD_CAT_ID,OBJECT_NAME,OBJECT_TYPE,EPOCH,MEAN_MOTION,ECCENTRICITY,INCLINATION,RA_OF_ASC_NODE,ARG_OF_PERICENTER,MEAN_ANOMALY,BSTAR,MEAN_MOTION_DOT,MEAN_MOTION_DDOT,TLE_LINE0,TLE_LINE1,TLE_LINE2,SEMIMAJOR_AXIS,PERIOD,APOGEE,PERIGEE,DECAYED
52379.0,STARLINK-3800,PAYLOAD,2023-01-29 14:02:46,15.08840685,0.0001215,53.213,244.8111,82.2899,277.8231,0.00011606,1.56e-05,0.0,0 STARLINK-3800,1 52379U 22045BA  23029.58526307  .00001560  00000-0  11606-3 0  9990,2 52379  53.2130 244.8111 0001215  82.2899 277.8231 15.08840685 44564,6917.878,95.438,540.584,538.903,0.0
52379.0,STARLINK-3800,PAYLOAD,2023-01-29 20:24:18,15.08863914,0.0001282,53.2129,243.6212,85.8417,274.2722,0.00042882,6.548e-05,0.0,0 STARLINK-3800,1 52379U 22045BA  23029.85021042  .00006548  00000-0  42882-3 0  9997,2 52379  53.2129 243.6212 0001282  85.8417 274.2722 15.08863914 44601,6917.807,95.436,540.559,538.785,0.0
52379.0,STARLINK-3800,PAYLOAD,2023-01-30 13:53:33,15.08841327,0.000107,53.2131,240.3506,82.488,277.6233,-2.3873e-05,-6.68e-06,0.0,0 STARLINK-3800,1 52379U 22045BA  23030.57885669 -.00000668  00000-0 -23873-4 0  9990,2 52379  53.2131 240.3506 0001070  82.4880 277.6233 15.08841327 44716,6917.876,95.437,540.482,539.001,0.0
52379.0,STARLINK-3800,PAYLOAD,2023-01-30 20:15:05,15.08837162,0.0001208,53.2132,239.1611,82.2523,277.8606,-7.8467e-05,-1.536e-05,0.0,0 STARLINK-3800,1 52379U 22045BA  23030.84381902 -.00001536  00000-0 -78467-4 0  9995,2 52379  53.2132 239.1611 0001208  82.2523 277.8606 15.08837162 44757,6917.889,95.438,540.59,538.918,0.0
52379.0,STARLINK-3800,PAYLOAD,2023-01-30 23:25:52,15.08836585,0.0001082,53.2144,238.5668,76.6015,283.5097,-2.4866e-05,-6.83e-06,0.0,0 STARLINK-3800,1 52379U 22045BA  23030.97630391 -.00000683  00000-0 -24866-4 0  9994,2 52379  53.2144 238.5668 0001082  76.6015 283.5097 15.08836585 44776,6917.891,95.438,540.504,539.007,0.0
52379.0,STARLINK-3800,PAYLOAD,2023-01-31 13:44:20,15.08843519,0.0001089,53.2144,235.8895,89.911,270.2007,-0.00014757,-2.636e-05,0.0,0 STARLINK-3800,1 52379U 22045BA  23031.57246460 -.00002636  00000-0 -14757-3 0  9998,2 52379  53.2144 235.8895 0001089  89.9110 270.2007 15.08843519 44867,6917.87,95.437,540.488,538.981,0.0
52379.0,STARLINK-3800,PAYLOAD,2023-01-31 23:16:39,15.0884941,0.0001197,53.2137,234.1041,96.2621,263.8507,-0.00010297,-1.927e-05,0.0,0 STARLINK-3800,1 52379U 22045BA  23031.96989760 -.00001927  00000-0 -10297-3 0  9995,2 52379  53.2137 234.1041 0001197  96.2621 263.8507 15.08849410 44928,6917.852,95.437,540.545,538.889,0.0
52379.0,STARLINK-3800,PAYLOAD,2023-02-01 13:35:07,15.08831404,0.0001261,53.2129,231.4278,101.4091,258.7042,0.00017768,2.54e-05,0.0,0 STARLINK-3800,1 52379U 22045BA  23032.56606331  .00002540  00000-0  17768-3 0  9992,2 52379  53.2129 231.4278 0001261 101.4091 258.7042 15.08831404 45015,6917.907,95.438,540.644,538.899,0.0
52379.0,STARLINK-3800,PAYLOAD,2023-02-01 19:56:40,15.08833949,0.0001354,53.2121,230.2385,97.3214,262.7932,0.00019778,2.861e-05,0.0,0 STARLINK-3800,1 52379U 22045BA  23032.83102324  .00002861  00000-0  19778-3 0  9994,2 52379  53.2121 230.2385 0001354  97.3214 262.7932 15.08833949 45059,6917.899,95.438,540.701,538.827,0.0
52379.0,STARLINK-3800,PAYLOAD,2023-02-02 13:25:54,15.08839851,0.000116,53.2113,226.9673,92.46,267.6525,0.00011877,1.603e-05,0.0,0 STARLINK-3800,1 52379U 22045BA  23033.55966408  .00001603  00000-0  11877-3 0  9990,2 52379  53.2113 226.9673 0001160  92.4600 267.6525 15.08839851 45164,6917.881,95.438,540.548,538.943,0.0
52379.0,STARLINK-3800,PAYLOAD,2023-02-02 21:22:50,15.08842695,0.0001188,53.2114,225.4805,91.7622,268.3506,0.00012942,1.773e-05,0.0,0 STARLINK-3800,1 52379U 22045BA  23033.89086218  .00001773  00000-0  12942-3 0  9991,2 52379  53.2114 225.4805 0001188  91.7622 268.3506 15.08842695 45215,6917.872,95.437,540.559,538.915,0.0
52379.0,STARLINK-3800,PAYLOAD,2023-02-03 13:16:42,15.08837107,0.0001102,53.2135,222.5071,96.2133,263.8985,7.3521e-06,-1.71e-06,0.0,0 STARLINK-3800,1 52379U 22045BA  23034.55326519 -.00000171  00000-0  73521-5 0  9990,2 52379  53.2135 222.5071 0001102  96.2133 263.8985 15.08837107 45318,6917.889,95.438,540.517,538.992,0.0
52379.0,STARLINK-3800,PAYLOAD,2023-02-04 13:07:29,15.08837076,0.0001155,53.2144,218.0459,95.7186,264.3938,0.00010487,1.381e-05,0.0,0 STARLINK-3800,1 52379U 22045BA  23035.54686783  .00001381  00000-0  10487-3 0  9995,2 52379  53.2144 218.0459 0001155  95.7186 264.3938 15.08837076 45463,6917.889,95.438,540.553,538.955,0.0
52379.0,STARLINK-3800,PAYLOAD,2023-02-04 21:04:24,15.08842708,0.0001111,53.2139,216.5587,93.048,267.0639,5.604e-05,6.04e-06,0.0,0 STARLINK-3800,1 52379U 22045BA  23035.87806429  .00000604  00000-0  56040-4 0  9995,2 52379  53.2139 216.5587 0001111  93.0480 267.0639 15.08842708 45514,6917.872,95.437,540.506,538.969,0.0
52379.0,STARLINK-3800,PAYLOAD,2023-02-05 11:22:53,15.08837375,0.0001171,53.2138,213.8821,89.056,271.0567,7.0309e-05,8.31e-06,0.0,0 STARLINK-3800,1 52379U 22045BA  23036.47422849  .00000831  00000-0  70309-4 0  9998,2 52379  53.2138 213.8821 0001171  89.0560 271.0567 15.08837375 45603,6917.888,95.438,540.563,538.943,0.0
52379.0,STARLINK-3800,PAYLOAD,2023-02-05 20:55:11,15.08841796,0.0001112,53.2135,212.0977,89.7084,270.4036,7.6299e-05,9.27e-06,0.0,0 STARLINK-3800,1 52379U 22045BA  23036.87166553  .00000927  00000-0  76299-4 0  9999,2 52379  53.2135 212.0977 0001112  89.7084 270.4036 15.08841796 45668,6917.875,95.437,540.509,538.971,0.0
52379.0,STARLINK-3800,PAYLOAD,2023-02-06 04:52:07,15.08839235,0.000116,53.2135,210.6107,87.7265,272.386,5.9412e-05,6.58e-06,0.0,0 STARLINK-3800,1 52379U 22045BA  23037.20286858  .00000658  00000-0  59412-4 0  9997,2 52379  53.2135 210.6107 0001160  87.7265 272.3860 15.08839235 45716,6917.883,95.438,540.55,538.945,0.0
52379.0,STARLINK-3800,PAYLOAD,2023-02-06 17:35:12,15.08843737,0.0001102,53.2135,208.2315,87.2551,272.8568,7.8612e-05,9.64e-06,0.0,0 STARLINK-3800,1 52379U 22045BA  23037.73278542  .00000964  00000-0  78612-4 0  9999,2 52379  53.2135 208.2315 0001102  87.2551 272.8568 15.08843737 45799,6917.869,95.437,540.496,538.972,0.0
52379.0,STARLINK-3800,PAYLOAD,2023-02-07 14:15:13,15.08845035,0.0001147,53.2131,204.3662,85.4317,274.6806,0.00010572,1.395e-05,0.0,0 STARLINK-3800,1 52379U 22045BA  23038.59390325  .00001395  00000-0  10572-3 0  9997,2 52379  53.2131 204.3662 0001147  85.4317 274.6806 15.08845035 45929,6917.865,95.437,540.523,538.937,0.0
52379.0,STARLINK-3800,PAYLOAD,2023-02-07 17:25:59,15.08849486,0.0001096,53.2134,203.7709,91.7463,268.3655,0.00012234,1.66e-05,0.0,0 STARLINK-3800,1 52379U 22045BA  23038.72637943  .00001660  00000-0  12234-3 0  9994,2 52379  53.2134 203.7709 0001096  91.7463 268.3655 15.08849486 45940,6917.851,95.437,540.475,538.958,0.0
52379.0,STARLINK-3800,PAYLOAD,2023-02-08 14:06:00,15.08841238,0.0001112,53.2138,199.9045,98.9062,261.2056,6.8744e-05,8.06e-06,0.0,0 STARLINK-3800,1 52379U 22045BA  23039.58750651  .00000806  00000-0  68744-4 0  9990,2 52379  53.2138 199.9045 0001112  98.9062 261.2056 15.08841238 46075,6917.877,95.437,540.511,538.972,0.0
52379.0,STARLINK-3800,PAYLOAD,2023-02-08 17:16:46,15.08842666,0.0001117,53.2133,199.3089,102.1245,257.9872,7.9556e-05,9.79e-06,0.0,0 STARLINK-3800,1 52379U 22045BA  23039.71998507  .00000979  00000-0  79556-4 0  9993,2 52379  53.2133 199.3089 0001117 102.1245 257.9872 15.08842666 46094,6917.872,95.437,540.51,538.965,0.0
52379.0,STARLINK-3800,PAYLOAD,2023-02-09 10:46:01,15.08838008,0.0001135,53.2131,196.038,103.467,256.6449,1.368e-05,-7e-07,0.0,0 STARLINK-3800,1 52379U 22045BA  23040.44862896 -.00000070  00000-0  13680-4 0  9995,2 52379  53.2131 196.0380 0001135 103.4670 256.6449 15.08838008 46200,6917.886,95.438,540.537,538.966,0.0
52379.0,STARLINK-3800,PAYLOAD,2023-02-09 17:07:33,15.08845265,0.0001124,53.2138,194.8503,91.1585,268.9536,0.00014647,2.044e-05,0.0,0 STARLINK-3800,1 52379U 22045BA  23040.71358357  .00002044  00000-0  14647-3 0  9992,2 52379  53.2138 194.8503 0001124  91.1585 268.9536 15.08845265 46246,6917.864,95.437,540.507,538.952,0.0
52379.0,STARLINK-3800,PAYLOAD,2023-02-10 02:39:52,15.08839871,0.0001123,53.2141,193.0639,90.5411,269.5709,0.00012139,1.645e-05,0.0,0 STARLINK-3800,1 52379U 22045BA  23041.11102838  .00001645  00000-0  12139-3 0  9998,2 52379  53.2141 193.0639 0001123  90.5411 269.5709 15.08839871 46303,6917.881,95.438,540.523,538.969,0.0
52379.0,STARLINK-3800,PAYLOAD,2023-02-10 12:12:12,15.08815626,0.0001334,53.2132,191.2815,108.9037,251.21,0.0007419,0.00011531,0.0,0 STARLINK-3800,1 52379U 22045BA  23041.50848090  .00011531  00000-0  74190-3 0  9998,2 52379  53.2132 191.2815 0001334 108.9037 251.2100 15.08815626 46362,6917.955,95.439,540.743,538.897,0.0
52379.0,STARLINK-3800,PAYLOAD,2023-02-10 15:22:57,15.0884345,9.97e-05,53.2142,190.6863,94.7075,265.4031,0.00012694,1.733e-05,0.0,0 STARLINK-3800,1 52379U 22045BA  23041.64094796  .00001733  00000-0  12694-3 0  9993,2 52379  53.2142 190.6863 0000997  94.7075 265.4031 15.08843450 46385,6917.87,95.437,540.425,539.045,0.0
52379.0,STARLINK-3800,PAYLOAD,2023-02-10 16:58:21,15.08838523,0.0001171,53.2137,190.3884,111.6013,248.5104,0.00056996,8.794e-05,0.0,0 STARLINK-3800,1 52379U 22045BA  23041.70719155  .00008794  00000-0  56996-3 0  9990,2 52379  53.2137 190.3884 0001171 111.6013 248.5104 15.08838523 46394,6917.885,95.438,540.56,538.94,0.0
52379.0,STARLINK-3800,PAYLOAD,2023-02-11 05:41:26,15.08828556,0.000112,53.2134,188.0109,94.1597,265.9523,-0.00018701,-3.262e-05,0.0,0 STARLINK-3800,1 52379U 22045BA  23042.23711398 -.00003262  00000-0 -18701-3 0  9999,2 52379  53.2134 188.0109 0001120  94.1597 265.9523 15.08828556 46473,6917.915,95.438,540.555,539.006,0.0
52379.0,STARLINK-3800,PAYLOAD,2023-02-11 12:02:59,15.08833858,0.0001167,53.2131,186.8215,97.2843,262.8282,-6.6472e-05,-1.345e-05,0.0,0 STARLINK-3800,1 52379U 22045BA  23042.50207410 -.00001345  00000-0 -66472-4 0  9993,2 52379  53.2131 186.8215 0001167  97.2843 262.8282 15.08833858 46517,6917.899,95.438,540.571,538.957,0.0
